ONEWEB-0647             
1 56079U 23043AK  23350.75267297 -.00000117  00000+0 -34429-3 0  9992
2 56079  87.9006  81.0724 0001334 107.8962 252.2314 13.15545978 36326
ONEWEB-0651             
1 56080U 23043AL  23350.29157529 -.00000046  00000+0 -15615-3 0  9996
2 56080  87.9009  81.1354 0001338  87.0876 273.0408 13.15549950 37463
ONEWEB-0718             
1 56081U 23043AM  23350.81921155 -.00000070  00000+0 -21989-3 0  9997
2 56081  87.9008  81.0183 0002328 101.2997 258.8395 13.15550493 37252
GSLV R/B                
1 56082U 23043AN  23350.63133430  .00041251  00000+0  62664-3 0  9998
2 56082  87.4102  47.9402 0020376  73.0381 287.3113 15.54159768 40977
ONEWEB-0561             
1 56710U 23068A   23350.36783449  .00000123  00000+0  22147-3 0  9999
2 56710  88.2927  92.5328 0001305 130.2493 229.8763 13.34318376 28744
ONEWEB-0668             
1 56711U 23068B   23350.91667824 -.00771435  00000+0 -25531+0 0  9998
2 56711  86.9693  55.0171 0013085 204.8059 313.2837 14.40962332 31888
ONEWEB-0676             
1 56712U 23068C   23350.91667824 -.00837632  00000+0 -33653+0 0  9995
2 56712  86.9453  54.9954 0013720 200.2923 159.7465 14.31436794 31862
ONEWEB-0677             
1 56713U 23068D   23350.33984996  .00000202  00000+0  37667-3 0  9990
2 56713  88.3262  90.6355 0001447  89.7132 270.4176 13.34766866 28925
